GLOBALSTAR M084         
1 38040U 11080A   24339.61952399 -.00000058  00000+0  25288-3 0  9991
2 38040  52.0016 280.8089 0000778  34.8454 135.8691 12.62271742598375
GLOBALSTAR M080         
1 38041U 11080B   24340.30474578 -.00000068  00000+0  20178-3 0  9992
2 38041  52.0067 280.2627 0000698  15.4013 149.8538 12.62269481598441
GLOBALSTAR M082         
1 38042U 11080C   24340.47761362 -.00000058  00000+0  25732-3 0  9991
2 38042  52.0067 235.1622 0001269  87.8123  83.7226 12.62270690599205
GLOBALSTAR M092         
1 38043U 11080D   24340.19370751 -.00000088  00000+0  89612-4 0  9990
2 38043  52.0101 326.3918 0000480  55.0009  25.8885 12.62270025597668
GLOBALSTAR M090         
1 38044U 11080E   24339.93001406 -.00000060  00000+0  24381-3 0  9990
2 38044  51.9879 230.8869 0000974  82.2334   0.1426 12.62264483599080
GLOBALSTAR M086         
1 38045U 11080F   24340.45087837 -.00000066  00000+0  20997-3 0  9997
2 38045  51.9886 229.8361 0000048  70.5546 100.3424 12.62264347599193
GLOBALSTAR M097         
1 39072U 13005A   24340.36092132 -.00000105  00000+0 -48800-5 0  9991
2 39072  52.0016 144.4604 0000978 112.8217 247.2753 12.62268139546416
GLOBALSTAR M093         
1 39073U 13005B   24339.93808129 -.00000108  00000+0 -21688-4 0  9991
2 39073  51.9784 139.3577 0001083 115.7390 244.3588 12.62276950546358
